MEAN_MOTION;ECCENTRICITY;INCLINATION;RA_OF_ASC_NODE;ARG_OF_PERICENTER;MEAN_ANOMALY;BSTAR;MEAN_MOTION_DOT;MEAN_MOTION_DDOT;TYPE
14.90751868;0.001313;97.5303;84.7273;187.8872;172.2142;2.8217E-5;2.25E-6;0;Amateur
14.90752418;0.0013215;97.5303;85.5597;184.8621;175.2472;2.4222E-5;1.85E-6;0;Amateur
14.90752496;0.001322;97.5303;85.6877;184.4083;175.7021;2.4017E-5;1.83E-6;0;Amateur
14.90753366;0.0013304;97.5303;86.5201;181.4322;178.6861;2.7411E-5;2.17E-6;0;Amateur
14.90753503;0.0013316;97.5303;86.7122;180.7637;179.3564;2.7941E-5;2.22E-6;0;Amateur
14.90754063;0.0013385;97.5304;87.4165;178.2868;181.8399;3.0766E-5;2.5E-6;0;Amateur
14.90754365;0.0013417;97.5303;87.7367;177.1858;182.9439;3.3544E-5;2.77E-6;0;Amateur
14.90754365;0.0013417;97.5303;87.7367;177.1858;182.9439;3.3544E-5;2.77E-6;0;Amateur
14.90754889;0.0013477;97.5304;88.377;174.9889;185.1467;3.7791E-5;3.19E-6;0;Amateur
14.9075496;0.0013489;97.5303;88.5691;174.3273;185.8101;3.8071E-5;3.22E-6;0;Amateur
14.90755649;0.0013574;97.5303;89.3375;171.7517;188.3928;4.4059E-5;3.81E-6;0;Amateur
14.90755689;0.0013599;97.5303;89.5936;170.883;189.2639;4.3252E-5;3.73E-6;0;Amateur
14.9075625;0.0013669;97.5303;90.49;167.8834;192.2716;4.4792E-5;3.88E-6;0;Amateur
14.90757086;0.0013774;97.5303;91.5786;164.253;195.912;4.415E-5;3.82E-6;0;Amateur
14.90757086;0.0013774;97.5303;91.5786;164.253;195.912;4.415E-5;3.82E-6;0;Amateur
14.90757286;0.0013843;97.5303;92.2829;161.8791;198.2924;3.467E-5;2.88E-6;0;Amateur
14.9075755;0.0013879;97.5303;92.6671;160.5878;199.5872;3.2447E-5;2.67E-6;0;Amateur
14.90757875;0.0013938;97.5303;93.1793;158.8475;201.3323;2.8452E-5;2.27E-6;0;Amateur
14.90758761;0.0014034;97.5304;94.1398;155.5796;204.609;2.7452E-5;2.17E-6;0;Amateur
14.90758905;0.0014052;97.5303;94.3959;154.7067;205.4843;2.6292E-5;2.06E-6;0;Amateur
14.90759307;0.0014118;97.5304;95.1003;152.32;207.8773;2.3371E-5;1.77E-6;0;Amateur
14.90759347;0.0014123;97.5304;95.1643;152.1041;208.0937;2.3401E-5;1.78E-6;0;Amateur
14.90759922;0.0014196;97.5304;95.9967;149.3128;210.8924;2.5185E-5;1.95E-6;0;Amateur
14.90759958;0.0014199;97.5304;96.0607;149.1017;211.104;2.524E-5;1.96E-6;0;Amateur
14.907605;0.0014275;97.5304;96.9572;146.1655;214.0478;2.9016E-5;2.33E-6;0;Amateur
14.90760651;0.0014283;97.5304;97.0853;145.75;214.4643;3.0961E-5;2.52E-6;0;Amateur
14.90761209;0.0014337;97.5304;97.9177;143.0679;217.153;3.6897E-5;3.1E-6;0;Amateur
14.90761187;0.0014344;97.5304;97.9817;142.8669;217.3545;3.6368E-5;3.05E-6;0;Amateur
14.90761767;0.0014402;97.5303;98.9422;139.7832;220.4455;4.1952E-5;3.6E-6;0;Amateur
14.90762339;0.0014456;97.5302;99.8387;136.9396;223.2956;4.427E-5;3.83E-6;0;Amateur
14.90762441;0.0014462;97.5302;99.9026;136.7455;223.4902;4.5194E-5;3.92E-6;0;Amateur
14.90763006;0.0014524;97.53;100.7991;133.8976;226.3445;4.2991E-5;3.7E-6;0;Amateur
14.90763154;0.0014542;97.53;101.0552;133.0747;227.1691;4.1674E-5;3.57E-6;0;Amateur
14.90763644;0.0014586;97.53;101.7595;130.8171;229.4315;3.7165E-5;3.13E-6;0;Amateur
14.90763674;0.0014591;97.53;101.8236;130.6108;229.6383;3.6573E-5;3.07E-6;0;Amateur
14.90764648;0.0014689;97.5299;102.9761;126.9434;233.3133;3.0628E-5;2.49E-6;0;Amateur
14.90764648;0.0014689;97.5299;102.9761;126.9434;233.3133;3.0628E-5;2.49E-6;0;Amateur
14.90765243;0.0014745;97.5299;103.7445;124.4807;235.7807;2.6784E-5;2.11E-6;0;Amateur
14.90765771;0.001478;97.53;104.3208;122.6195;237.6452;2.6828E-5;2.11E-6;0;Amateur
14.90766111;0.0014802;97.53;104.641;121.5957;238.6709;2.7407E-5;2.17E-6;0;Amateur
14.90766278;0.001481;97.53;104.8331;121.0069;239.2606;2.7801E-5;2.21E-6;0;Amateur
14.90766997;0.0014851;97.5301;105.5374;118.7666;241.5047;3.1196E-5;2.54E-6;0;Amateur
14.90767033;0.0014853;97.5301;105.6014;118.569;241.7025;3.1245E-5;2.55E-6;0;Amateur
14.90767242;0.0014861;97.5301;105.8575;117.768;242.5048;3.2454E-5;2.67E-6;0;Amateur
14.90767985;0.0014894;97.5301;106.754;114.9069;245.37;3.798E-5;3.21E-6;0;Amateur
14.90767985;0.0014894;97.5301;106.754;114.9069;245.37;3.798E-5;3.21E-6;0;Amateur
14.90768792;0.0014924;97.5301;107.7144;112.0174;248.2632;4.3877E-5;3.79E-6;0;Amateur
14.90768935;0.0014924;97.5301;107.8425;111.6241;248.657;4.5005E-5;3.9E-6;0;Amateur
14.90769818;0.0014932;97.5301;108.675;108.8984;251.3855;5.2276E-5;4.62E-6;0;Amateur
14.90770389;0.0014934;97.5301;109.0592;107.708;252.5771;5.6953E-5;5.08E-6;0;Amateur
14.90770726;0.001494;97.5301;109.3153;106.9203;253.3655;5.8015E-5;5.19E-6;0;Amateur
14.90771527;0.0014953;97.53;110.0196;104.7339;255.5538;5.9168E-5;5.3E-6;0;Amateur
14.90772051;0.0014967;97.5299;110.5959;102.9627;257.3264;5.5764E-5;4.96E-6;0;Amateur
14.90772789;0.0014986;97.5299;111.3003;100.7741;259.5166;5.1454E-5;4.54E-6;0;Amateur
14.90772997;0.0014991;97.5299;111.4924;100.1609;260.1302;5.0528E-5;4.45E-6;0;Amateur
14.90773853;0.0015019;97.5298;112.2608;97.7717;262.5207;4.5683E-5;3.97E-6;0;Amateur
14.90774018;0.0015025;97.5298;112.4529;97.1913;263.1014;4.4206E-5;3.83E-6;0;Amateur
14.90774632;0.0015049;97.5298;113.2212;94.8324;265.4613;3.7073E-5;3.12E-6;0;Amateur
14.90774755;0.0015051;97.5298;113.3493;94.4338;265.8601;3.6761E-5;3.09E-6;0;Amateur
14.90775471;0.0015069;97.5298;114.1818;91.8371;268.4574;3.3461E-5;2.77E-6;0;Amateur
14.90776231;0.0015074;97.5298;115.1423;88.8585;271.4361;3.2749E-5;2.7E-6;0;Amateur
14.90777173;0.0015064;97.5297;116.2308;85.3738;274.9201;3.8537E-5;3.27E-6;0;Amateur
14.90777872;0.0015041;97.5297;117.0632;82.7361;277.5567;4.3812E-5;3.79E-6;0;Amateur
14.90778777;0.0014993;97.5296;118.2798;79.0551;281.2353;4.7091E-5;4.11E-6;0;Amateur
14.90778846;0.001499;97.5296;118.3439;78.8548;281.4356;4.7196E-5;4.12E-6;0;Amateur
14.90779306;0.0014971;97.5296;118.9842;76.8382;283.4506;4.6001E-5;4.0E-6;0;Amateur
14.90779593;0.0014955;97.5296;119.3683;75.6609;284.627;4.4479E-5;3.85E-6;0;Amateur
14.90780023;0.001494;97.5296;119.9446;73.8632;286.423;4.1375E-5;3.55E-6;0;Amateur
14.90780319;0.0014933;97.5295;120.3288;72.6318;287.6533;3.9081E-5;3.32E-6;0;Amateur
14.90780746;0.0014917;97.5296;120.9692;70.6432;289.6398;3.4431E-5;2.86E-6;0;Amateur
14.90781012;0.00149;97.5296;121.2893;69.6812;290.6007;3.2555E-5;2.68E-6;0;Amateur
14.90781192;0.0014898;97.5296;121.5455;68.9288;291.3522;3.113E-5;2.54E-6;0;Amateur
14.90781471;0.0014891;97.5295;121.9937;67.4993;292.7801;2.8096E-5;2.24E-6;0;Amateur
14.90781695;0.0014883;97.5295;122.2498;66.6979;293.5804;2.7433E-5;2.17E-6;0;Amateur
14.90782313;0.0014873;97.5296;122.6981;65.3369;294.9397;3.0418E-5;2.47E-6;0;Amateur
14.90782527;0.0014853;97.5295;123.2103;63.7344;296.54;2.7829E-5;2.21E-6;0;Amateur
14.90782816;0.001484;97.5296;123.6586;62.3493;297.923;2.7653E-5;2.2E-6;0;Amateur
14.90782857;0.0014837;97.5296;123.7226;62.1433;298.1287;2.7716E-5;2.2E-6;0;Amateur
14.90783174;0.0014814;97.5295;124.1708;60.718;299.5517;2.8993E-5;2.33E-6;0;Amateur
14.90783555;0.0014794;97.5295;124.8111;58.6314;301.635;3.1204E-5;2.55E-6;0;Amateur
14.90783842;0.0014771;97.5295;125.1313;57.6051;302.6595;3.3801E-5;2.8E-6;0;Amateur
14.90784087;0.0014736;97.5294;125.7716;55.5431;304.7178;3.4738E-5;2.89E-6;0;Amateur
14.90784526;0.001471;97.5294;126.0917;54.5046;305.7543;4.0429E-5;3.45E-6;0;Amateur
14.90784904;0.0014669;97.5293;126.732;52.419;307.8358;4.3347E-5;3.74E-6;0;Amateur
14.90785526;0.0014605;97.5293;127.5004;49.9372;310.3125;4.6548E-5;4.06E-6;0;Amateur
14.9078562;0.0014586;97.5292;127.7565;49.1084;311.1395;4.5589E-5;3.96E-6;0;Amateur
14.90786303;0.0014522;97.5291;128.7169;45.9631;314.2781;4.3537E-5;3.76E-6;0;Amateur
14.90786303;0.0014522;97.5291;128.7169;45.9631;314.2781;4.3537E-5;3.76E-6;0;Amateur
14.90786999;0.0014446;97.5291;129.6133;43.111;317.1238;3.9199E-5;3.33E-6;0;Amateur
14.9078711;0.0014426;97.5291;129.7413;42.7245;317.5093;3.8395E-5;3.25E-6;0;Amateur
14.90787664;0.001439;97.5291;130.1255;41.5514;318.6796;3.9577E-5;3.37E-6;0;Amateur
14.9078792;0.0014363;97.5291;130.6378;39.9129;320.3143;3.3997E-5;2.82E-6;0;Amateur
14.90788017;0.0014348;97.529;130.8298;39.2918;320.9339;3.2043E-5;2.63E-6;0;Amateur
14.90788218;0.0014334;97.5291;131.086;38.5045;321.7193;3.0671E-5;2.49E-6;0;Amateur
14.90788532;0.0014303;97.529;131.5342;37.0665;323.1539;2.8053E-5;2.23E-6;0;Amateur
14.9078879;0.001428;97.529;131.8543;36.0376;324.1803;2.6895E-5;2.12E-6;0;Amateur
14.90789181;0.0014256;97.5291;132.2385;34.8201;325.3948;2.7453E-5;2.18E-6;0;Amateur
14.90789303;0.0014233;97.5291;132.4946;33.991;326.2218;2.6296E-5;2.06E-6;0;Amateur
14.90789975;0.0014183;97.5291;133.199;31.7092;328.4978;2.8715E-5;2.3E-6;0;Amateur
14.90789859;0.001418;97.5291;133.263;31.4932;328.7133;2.6161E-5;2.05E-6;0;Amateur
14.90790664;0.0014108;97.5291;134.2234;28.3086;331.8897;3.1265E-5;2.55E-6;0;Amateur
14.90790851;0.0014085;97.5291;134.4796;27.451;332.745;3.2923E-5;2.71E-6;0;Amateur
14.90791512;0.0014017;97.5291;135.1839;25.0867;335.103;3.8999E-5;3.31E-6;0;Amateur
14.90791631;0.0013998;97.529;135.376;24.4389;335.7491;3.9898E-5;3.4E-6;0;Amateur
14.90792291;0.0013896;97.529;136.3364;21.1813;338.9978;4.2927E-5;3.7E-6;0;Amateur
14.90793181;0.0013814;97.5289;137.1048;18.5503;341.6217;4.8982E-5;4.3E-6;0;Amateur
14.90793264;0.0013765;97.5289;137.4889;17.2502;342.9181;4.4935E-5;3.9E-6;0;Amateur
14.90793949;0.0013675;97.5288;138.2572;14.6621;345.4992;4.3566E-5;3.76E-6;0;Amateur
14.90794132;0.0013648;97.5288;138.4493;14.0032;346.1563;4.264E-5;3.67E-6;0;Amateur
14.9079455;0.0013598;97.5288;138.9616;12.28;347.8747;3.9276E-5;3.34E-6;0;Amateur
14.90794798;0.0013588;97.5287;139.1536;11.6288;348.5242;3.9661E-5;3.38E-6;0;Amateur
14.90795512;0.0013559;97.5287;139.4097;10.7598;349.3909;4.5991E-5;4.0E-6;0;Amateur
14.90796126;0.0013515;97.5287;139.858;9.2795;350.8671;4.6157E-5;4.02E-6;0;Amateur
14.90795913;0.0013494;97.5287;140.1141;8.4152;351.729;3.7013E-5;3.12E-6;0;Amateur
14.90796214;0.0013456;97.5287;140.4342;7.3325;352.8089;3.5063E-5;2.92E-6;0;Amateur
14.90796768;0.0013409;97.5287;140.9464;5.6219;354.5148;3.3998E-5;2.82E-6;0;Amateur
14.9079723;0.0013376;97.5286;141.3946;4.0915;356.0411;3.3521E-5;2.77E-6;0;Amateur
14.90797894;0.0013339;97.5286;141.7788;2.8034;357.3257;3.7738E-5;3.19E-6;0;Amateur
